NORAD_CAT_ID,OBJECT_NAME,OBJECT_TYPE,EPOCH,MEAN_MOTION,ECCENTRICITY,INCLINATION,RA_OF_ASC_NODE,ARG_OF_PERICENTER,MEAN_ANOMALY,BSTAR,MEAN_MOTION_DOT,MEAN_MOTION_DDOT,TLE_LINE0,TLE_LINE1,TLE_LINE2,SEMIMAJOR_AXIS,PERIOD,APOGEE,PERIGEE,DECAYED
53888.0,STARLINK-5034,PAYLOAD,2022-12-03 14:00:01,15.08832209,0.0001622,53.2157,275.8738,138.8589,246.0069,0.00054014,8.317e-05,0.0,0 STARLINK-5034,1 53888U 22119C   22337.58334491  .00008317  00000-0  54014-3 0  9997,2 53888  53.2157 275.8738 0001622 138.8589 246.0069 15.08832209  1309,6917.904,95.438,540.891,538.6469999999998,0.0
53888.0,STARLINK-5034,PAYLOAD,2022-12-03 22:00:00,15.0886736,0.0001692,53.216,274.3774,137.8694,258.5745,-0.0026045,-0.00041531,0.0,0 STARLINK-5034,1 53888U 22119C   22337.91667824 -.00041531  00000-0 -26045-2 0  9992,2 53888  53.2160 274.3774 0001692 137.8694 258.5745 15.08867360 11340,6917.797,95.436,540.832,538.491,0.0
53888.0,STARLINK-5034,PAYLOAD,2022-12-04 12:00:00,15.08846316,0.0001617,53.216,271.7589,133.8106,192.9322,-0.001422,-0.00022852,0.0,0 STARLINK-5034,1 53888U 22119C   22338.50001157 -.00022852  00000-0 -14220-2 0  9996,2 53888  53.2160 271.7589 0001617 133.8106 192.9322 15.08846316 11425,6917.861,95.437,540.845,538.607,0.0
53888.0,STARLINK-5034,PAYLOAD,2022-12-04 14:00:01,15.08828571,0.0001685,53.2162,271.3843,136.3405,283.3061,0.0010076,0.00015779,0.0,0 STARLINK-5034,1 53888U 22119C   22338.58334491  .00015779  00000-0  10076-2 0  9997,2 53888  53.2162 271.3843 0001685 136.3405 283.3061 15.08828571  1305,6917.915,95.438,540.946,538.615,0.0
53888.0,STARLINK-5034,PAYLOAD,2022-12-04 22:00:00,15.08874036,0.000176,53.2164,269.8882,134.6425,296.5846,-0.0038351,-0.00060865,0.0,0 STARLINK-5034,1 53888U 22119C   22338.91667824 -.00060865  00000-0 -38351-2 0  9997,2 53888  53.2164 269.8882 0001760 134.6425 296.5846 15.08874036  1303,6917.776,95.435,540.859,538.424,0.0
53888.0,STARLINK-5034,PAYLOAD,2022-12-05 06:00:00,15.08806361,0.0001631999999999,53.2162,268.3932,128.3759,314.4716,0.0038275,0.00061099,0.0,0 STARLINK-5034,1 53888U 22119C   22339.25001157  .00061099  00000-0  38275-2 0  9999,2 53888  53.2162 268.3932 0001632 128.3759 314.4716 15.08806361 11548,6917.983,95.44,540.977,538.719,0.0
53888.0,STARLINK-5034,PAYLOAD,2022-12-05 14:00:01,15.08832172,0.0001738,53.2164,266.895,135.5716,318.9238,0.0016991,0.00026851,0.0,0 STARLINK-5034,1 53888U 22119C   22339.58335648  .00026851  00000-0  16991-2 0  9998,2 53888  53.2164 266.8950 0001738 135.5716 318.9238 15.08832172  1303,6917.904,95.438,540.972,538.567,0.0
53888.0,STARLINK-5034,PAYLOAD,2022-12-05 16:00:00,15.08823107,0.0001756,53.2162,266.5207,136.5427,50.7919,0.0034673,0.00055302,0.0,0 STARLINK-5034,1 53888U 22119C   22339.66667824  .00055302  00000-0  34673-2 0  9991,2 53888  53.2162 266.5207 0001756 136.5427  50.7919 15.08823107 11602,6917.932,95.439,541.012,538.582,0.0
53888.0,STARLINK-5034,PAYLOAD,2022-12-05 19:56:34,15.08838983,0.0001433,53.217,265.7837,139.2101,220.8999,-5.5159e-06,-3.76e-06,0.0,0 STARLINK-5034,1 53888U 22119C   22339.83095023 -.00000376  00000-0 -55159-5 0  9994,2 53888  53.2170 265.7837 0001433 139.2101 220.8999 15.08838983 12058,6917.8830000000025,95.438,540.74,538.757,0.0
53888.0,STARLINK-5034,PAYLOAD,2022-12-05 23:07:19,15.08843576,0.0001536,53.2166,265.189,136.9847,223.1266,3.0877e-05,2.03e-06,0.0,0 STARLINK-5034,1 53888U 22119C   22339.96342564  .00000203  00000-0  30877-4 0  9999,2 53888  53.2166 265.1890 0001536 136.9847 223.1266 15.08843576 11653,6917.869000000002,95.437,540.797,538.672,0.0
53888.0,STARLINK-5034,PAYLOAD,2022-12-06 11:50:25,15.08839566,0.0001555,53.2167,262.8103,136.3399,223.7716,-1.8131e-05,-5.77e-06,0.0,0 STARLINK-5034,1 53888U 22119C   22340.49334843 -.00000577  00000-0 -18131-4 0  9995,2 53888  53.2167 262.8103 0001555 136.3399 223.7716 15.08839566 12158,6917.882,95.438,540.822,538.6709999999998,0.0
53888.0,STARLINK-5034,PAYLOAD,2022-12-06 22:58:08,15.08832533,0.0001758,53.2171,260.7309,136.6282,223.4849,-0.00010742,-1.997e-05,0.0,0 STARLINK-5034,1 53888U 22119C   22340.95703877 -.00001997  00000-0 -10742-3 0  9999,2 53888  53.2171 260.7309 0001758 136.6282 223.4849 15.08832533 11809,6917.903,95.438,540.984,538.552,0.0
53888.0,STARLINK-5034,PAYLOAD,2022-12-07 03:44:17,15.0883345,0.0001681,53.2172,259.8386,133.1389,226.9744,-9.3023e-05,-1.768e-05,0.0,0 STARLINK-5034,1 53888U 22119C   22341.15575876 -.00001768  00000-0 -93023-4 0  9998,2 53888  53.2172 259.8386 0001681 133.1389 226.9744 15.08833450 12250,6917.9,95.438,540.928,538.6030000000002,0.0
53888.0,STARLINK-5034,PAYLOAD,2022-12-08 11:31:59,15.08841357,0.0001459,53.2172,253.8878,128.4577,231.6546,-7.9174e-05,-1.548e-05,0.0,0 STARLINK-5034,1 53888U 22119C   22342.48055473 -.00001548  00000-0 -79174-4 0  9998,2 53888  53.2172 253.8878 0001459 128.4577 231.6546 15.08841357 12459,6917.876,95.437,540.751,538.732,0.0
53888.0,STARLINK-5034,PAYLOAD,2022-12-09 00:15:07,15.08802424,0.0001932,53.2172,251.5101,135.274,224.8408,-0.00025863,-4.398e-05,0.0,0 STARLINK-5034,1 53888U 22119C   22343.01050796 -.00004398  00000-0 -25863-3 0  9992,2 53888  53.2172 251.5101 0001932 135.2740 224.8408 15.08802424 12113,6917.995,95.44,541.197,538.524,0.0
53888.0,STARLINK-5034,PAYLOAD,2022-12-09 03:25:52,15.08823158,0.0001535,53.2164,250.9159,131.2542,228.8583,-7.6553e-05,-1.506e-05,0.0,0 STARLINK-5034,1 53888U 22119C   22343.14297082 -.00001506  00000-0 -76553-4 0  9998,2 53888  53.2164 250.9159 0001535 131.2542 228.8583 15.08823158 12558,6917.932,95.439,540.859,538.735,0.0
53888.0,STARLINK-5034,PAYLOAD,2022-12-10 00:05:54,15.0882899,0.0001611,53.2165,247.0499,133.6967,226.4159,-0.00014367,-2.573e-05,0.0,0 STARLINK-5034,1 53888U 22119C   22344.00409922 -.00002573  00000-0 -14367-3 0  9991,2 53888  53.2165 247.0499 0001611 133.6967 226.4159 15.08828990 12681,6917.9140000000025,95.438,540.894,538.665,0.0
53888.0,STARLINK-5034,PAYLOAD,2022-12-10 22:21:17,15.08837774,0.0001721999999999,53.2169,242.8861,132.0939,228.02,8.971100000000001e-05,1.14e-05,0.0,0 STARLINK-5034,1 53888U 22119C   22344.93144931  .00001140  00000-0  89711-4 0  9992,2 53888  53.2169 242.8861 0001722 132.0939 228.0200 15.08837774 12401,6917.887,95.438,540.943,538.561,0.0
53888.0,STARLINK-5034,PAYLOAD,2022-12-11 20:36:42,15.08827697,0.000165,53.217,238.7235,133.4223,226.6907,3.7629e-05,3.11e-06,0.0,0 STARLINK-5034,1 53888U 22119C   22345.85882340  .00000311  00000-0  37629-4 0  9997,2 53888  53.2170 238.7235 0001650 133.4223 226.6907 15.08827697 12965,6917.918000000002,95.438,540.924,538.6419999999998,0.0
53888.0,STARLINK-5034,PAYLOAD,2022-12-12 02:58:14,15.08835862,0.0001728,53.2161,237.5323,134.1541,225.9593,0.00019005,2.738e-05,0.0,0 STARLINK-5034,1 53888U 22119C   22346.12377380  .00002738  00000-0  19005-3 0  9993,2 53888  53.2161 237.5323 0001728 134.1541 225.9593 15.08835862 12581,6917.893,95.438,540.953,538.563,0.0
53888.0,STARLINK-5034,PAYLOAD,2022-12-12 17:16:42,15.08847659,0.0001483,53.2158,234.8567,134.4949,225.6165,1.9652e-05,2.5e-07,0.0,0 STARLINK-5034,1 53888U 22119C   22346.71993069  .00000025  00000-0  19652-4 0  9992,2 53888  53.2158 234.8567 0001483 134.4949 225.6165 15.08847659 13096,6917.857,95.437,540.748,538.696,0.0
53888.0,STARLINK-5034,PAYLOAD,2022-12-13 09:10:33,15.08811673,0.0001644,53.2165,231.8842,127.1995,232.9148,0.0004938,7.574e-05,0.0,0 STARLINK-5034,1 53888U 22119C   22347.38233764  .00007574  00000-0  49380-3 0  9991,2 53888  53.2165 231.8842 0001644 127.1995 232.9148 15.08811673 12779,6917.967,95.439,540.969,538.695,0.0
53888.0,STARLINK-5034,PAYLOAD,2022-12-13 17:07:29,15.08847253,0.0001826,53.216,230.399,136.2333,223.8804,-8.4207e-05,-1.628e-05,0.0,0 STARLINK-5034,1 53888U 22119C   22347.71353315 -.00001628  00000-0 -84207-4 0  9997,2 53888  53.2160 230.3990 0001826 136.2333 223.8804 15.08847253 12828,6917.858,95.437,540.986,538.46,0.0
53888.0,STARLINK-5034,PAYLOAD,2022-12-14 09:01:19,15.08850933,0.0001696999999999,53.2158,227.4256,136.5871,223.5255,-6.093e-05,-1.258e-05,0.0,0 STARLINK-5034,1 53888U 22119C   22348.37592525 -.00001258  00000-0 -60930-4 0  9994,2 53888  53.2158 227.4256 0001697 136.5871 223.5255 15.08850933 13347,6917.847,95.437,540.886,538.538,0.0
53888.0,STARLINK-5034,PAYLOAD,2022-12-15 02:30:34,15.08840687,0.0001536,53.2173,224.1552,122.4676,237.6465,1.864e-05,9e-08,0.0,0 STARLINK-5034,1 53888U 22119C   22349.10456686  .00000009  00000-0  18640-4 0  9995,2 53888  53.2173 224.1552 0001536 122.4676 237.6465 15.08840687 13036,6917.878000000002,95.438,540.806,538.681,0.0
53888.0,STARLINK-5034,PAYLOAD,2022-12-15 08:52:07,15.08836749,0.0001556,53.2148,222.9651,140.2749,219.8358,-5.4811e-05,-1.16e-05,0.0,0 STARLINK-5034,1 53888U 22119C   22349.36952984 -.00001160  00000-0 -54811-4 0  9996,2 53888  53.2148 222.9651 0001556 140.2749 219.8358 15.08836749 13492,6917.89,95.438,540.832,538.679,0.0
53888.0,STARLINK-5034,PAYLOAD,2022-12-15 19:59:48,15.08840875,0.0001368,53.2157,220.8797,132.1713,227.9395,6.5273e-05,7.51e-06,0.0,0 STARLINK-5034,1 53888U 22119C   22349.83320298  .00000751  00000-0  65273-4 0  9992,2 53888  53.2157 220.8797 0001368 132.1713 227.9395 15.08840875 13566,6917.878000000002,95.437,540.689,538.7959999999998,0.0
53888.0,STARLINK-5034,PAYLOAD,2022-12-16 00:45:58,15.0883614,0.0001699,53.2157,219.9906,139.6624,220.4494,-9.2249e-05,-1.756e-05,0.0,0 STARLINK-5034,1 53888U 22119C   22350.03193102 -.00001756  00000-0 -92249-4 0  9999,2 53888  53.2157 219.9906 0001699 139.6624 220.4494 15.08836140 13172,6917.892,95.438,540.933,538.582,0.0
53888.0,STARLINK-5034,PAYLOAD,2022-12-16 08:42:54,15.088391,0.0001554,53.2159,218.5035,134.2102,225.9018,-4.442399999999999e-05,-9.95e-06,0.0,0 STARLINK-5034,1 53888U 22119C   22350.36312791 -.00000995  00000-0 -44424-4 0  9998,2 53888  53.2159 218.5035 0001554 134.2102 225.9018 15.08839100 13647,6917.8830000000025,95.438,540.823,538.673,0.0
